*******************************************************************************
Ephemeris / WWW_USER Mon Mar 24 07:27:55 2025 Pasadena, USA      / Horizons    
*******************************************************************************
Target body name: (2018 PK21)                     {source: JPL#33}
Center body name: Earth (399)                     {source: DE441}
Center-site name: Mauna Kea
*******************************************************************************
Start time      : A.D. 2018-Nov-30 03:51:00.0000 UT      
Stop  time      : A.D. 2018-Nov-30 16:29:00.0000 UT      
Step-size       : 1 minutes
*******************************************************************************
Target pole/equ : undefined
Target radii    : undefined                                                    
Center geodetic : 204.5278, 19.8260847, 4.21024   {E-lon(deg),Lat(deg),Alt(km)}
Center cylindric: 204.5278, 6006.35451, 2151.0229 {E-lon(deg),Dxy(km),Dz(km)}
Center pole/equ : ITRF93                          {East-longitude positive}
Center radii    : 6378.137, 6378.137, 6356.752 km {Equator_a, b, pole_c}       
Target primary  : Sun
Vis. interferer : MOON (R_eq= 1737.400) km        {source: DE441}
Rel. light bend : Sun                             {source: DE441}
Rel. lght bnd GM: 1.3271E+11 km^3/s^2                                          
Small-body perts: Yes                             {source: SB441-N16}
Atmos refraction: NO (AIRLESS)
RA format       : HMS
Time format     : CAL 
Calendar mode   : Mixed Julian/Gregorian
RTS-only print  : NO       
EOP file        : eop.250321.p250617                                           
EOP coverage    : DATA-BASED 1962-JAN-20 TO 2025-MAR-21. PREDICTS-> 2025-JUN-16
Units conversion: 1 au= 149597870.700 km, c= 299792.458 km/s, 1 day= 86400.0 s 
Table cut-offs 1: Elevation (-90.0deg=NO ),Airmass (>38.000=NO), Daylight (YES)
Table cut-offs 2: Solar elongation (  0.0,180.0=NO ),Local Hour Angle( 0.0=NO )
Table cut-offs 3: RA/DEC angular rate (     0.0=NO )                           
*******************************************************************************
Initial IAU76/J2000 heliocentric ecliptic osculating elements (au, days, deg.):
  EPOCH=  2458678.5 ! 2019-Jul-14.00 (TDB)         Residual RMS= .18538        
   EC= .08059571149071894  QR= .9080173735553244   TP= 2458556.3979336754      
   OM= 305.3714803879685   W=  224.0867446587677   IN= 1.196977749955446       
  Equivalent ICRF heliocentric cartesian coordinates (au, au/d):
   X= 5.084898226316541E-01  Y=-8.259633024476691E-01  Z=-3.605371187528673E-01
  VX= 1.486595997640644E-02 VY= 6.429710771461657E-03 VZ= 3.158008025433540E-03
Asteroid physical parameters (km, seconds, rotational period in hours):        
   GM= n.a.                RAD= n.a.               ROTPER= n.a.                
   H= 25.88                G= .150                 B-V= n.a.                   
                           ALBEDO= n.a.            STYP= n.a.                  
*******************************************************************************
 Date__(UT)__HR:MN     R.A._________(ICRF)_________DEC
******************************************************
$$SOE
 2018-Nov-30 07:57     22 38 46.541019 -02 11 26.14566
 2018-Nov-30 07:58     22 38 46.631755 -02 11 25.73025
 2018-Nov-30 07:59     22 38 46.722536 -02 11 25.31481
 2018-Nov-30 08:00     22 38 46.813361 -02 11 24.89936
 2018-Nov-30 08:01     22 38 46.904231 -02 11 24.48389
 2018-Nov-30 08:02     22 38 46.995145 -02 11 24.06839
 2018-Nov-30 08:03     22 38 47.086104 -02 11 23.65288
 2018-Nov-30 08:04     22 38 47.177108 -02 11 23.23735
 2018-Nov-30 08:05     22 38 47.268158 -02 11 22.82180
 2018-Nov-30 08:06     22 38 47.359252 -02 11 22.40624
 2018-Nov-30 08:07     22 38 47.450392 -02 11 21.99065
 2018-Nov-30 08:08     22 38 47.541577 -02 11 21.57504
 2018-Nov-30 08:09     22 38 47.632807 -02 11 21.15942
 2018-Nov-30 08:10     22 38 47.724084 -02 11 20.74378
 2018-Nov-30 08:11     22 38 47.815406 -02 11 20.32812
 2018-Nov-30 08:12     22 38 47.906775 -02 11 19.91244
 2018-Nov-30 08:13     22 38 47.998189 -02 11 19.49675
 2018-Nov-30 08:14     22 38 48.089650 -02 11 19.08103
 2018-Nov-30 08:15     22 38 48.181157 -02 11 18.66530
 2018-Nov-30 08:16     22 38 48.272711 -02 11 18.24955
 2018-Nov-30 08:17     22 38 48.364311 -02 11 17.83378
 2018-Nov-30 08:18     22 38 48.455959 -02 11 17.41800
 2018-Nov-30 08:19     22 38 48.547653 -02 11 17.00220
 2018-Nov-30 08:20     22 38 48.639394 -02 11 16.58638
 2018-Nov-30 08:21     22 38 48.731182 -02 11 16.17055
 2018-Nov-30 08:22     22 38 48.823018 -02 11 15.75469
 2018-Nov-30 08:23     22 38 48.914901 -02 11 15.33882
 2018-Nov-30 08:24     22 38 49.006831 -02 11 14.92294
 2018-Nov-30 08:25     22 38 49.098810 -02 11 14.50704
 2018-Nov-30 08:26     22 38 49.190836 -02 11 14.09112
 2018-Nov-30 08:27     22 38 49.282909 -02 11 13.67518
 2018-Nov-30 08:28     22 38 49.375031 -02 11 13.25923
 2018-Nov-30 08:29     22 38 49.467201 -02 11 12.84326
 2018-Nov-30 08:30     22 38 49.559420 -02 11 12.42728
 2018-Nov-30 08:31     22 38 49.651686 -02 11 12.01128
 2018-Nov-30 08:32     22 38 49.744001 -02 11 11.59527
 2018-Nov-30 08:33     22 38 49.836365 -02 11 11.17924
 2018-Nov-30 08:34     22 38 49.928777 -02 11 10.76319
 2018-Nov-30 08:35     22 38 50.021238 -02 11 10.34713
 2018-Nov-30 08:36     22 38 50.113748 -02 11 09.93105
 2018-Nov-30 08:37     22 38 50.206308 -02 11 09.51496
 2018-Nov-30 08:38     22 38 50.298916 -02 11 09.09885
 2018-Nov-30 08:39     22 38 50.391573 -02 11 08.68273
 2018-Nov-30 08:40     22 38 50.484280 -02 11 08.26659
 2018-Nov-30 08:41     22 38 50.577036 -02 11 07.85044
 2018-Nov-30 08:42     22 38 50.669842 -02 11 07.43428
 2018-Nov-30 08:43     22 38 50.762698 -02 11 07.01810
 2018-Nov-30 08:44     22 38 50.855603 -02 11 06.60190
 2018-Nov-30 08:45     22 38 50.948558 -02 11 06.18569
 2018-Nov-30 08:46     22 38 51.041563 -02 11 05.76947
 2018-Nov-30 08:47     22 38 51.134619 -02 11 05.35323
 2018-Nov-30 08:48     22 38 51.227724 -02 11 04.93698
 2018-Nov-30 08:49     22 38 51.320880 -02 11 04.52072
 2018-Nov-30 08:50     22 38 51.414086 -02 11 04.10444
 2018-Nov-30 08:51     22 38 51.507342 -02 11 03.68815
 2018-Nov-30 08:52     22 38 51.600649 -02 11 03.27184
 2018-Nov-30 08:53     22 38 51.694007 -02 11 02.85553
 2018-Nov-30 08:54     22 38 51.787415 -02 11 02.43920
 2018-Nov-30 08:55     22 38 51.880875 -02 11 02.02285
 2018-Nov-30 08:56     22 38 51.974385 -02 11 01.60650
 2018-Nov-30 08:57     22 38 52.067946 -02 11 01.19013
 2018-Nov-30 08:58     22 38 52.161559 -02 11 00.77374
 2018-Nov-30 08:59     22 38 52.255222 -02 11 00.35735
 2018-Nov-30 09:00     22 38 52.348937 -02 10 59.94094
 2018-Nov-30 09:01     22 38 52.442703 -02 10 59.52452
 2018-Nov-30 09:02     22 38 52.536521 -02 10 59.10809
 2018-Nov-30 09:03     22 38 52.630390 -02 10 58.69165
 2018-Nov-30 09:04     22 38 52.724311 -02 10 58.27520
 2018-Nov-30 09:05     22 38 52.818284 -02 10 57.85873
 2018-Nov-30 09:06     22 38 52.912308 -02 10 57.44225
 2018-Nov-30 09:07     22 38 53.006385 -02 10 57.02576
 2018-Nov-30 09:08     22 38 53.100513 -02 10 56.60926
 2018-Nov-30 09:09     22 38 53.194693 -02 10 56.19275
 2018-Nov-30 09:10     22 38 53.288926 -02 10 55.77622
 2018-Nov-30 09:11     22 38 53.383210 -02 10 55.35969
 2018-Nov-30 09:12     22 38 53.477547 -02 10 54.94315
 2018-Nov-30 09:13     22 38 53.571936 -02 10 54.52659
 2018-Nov-30 09:14     22 38 53.666378 -02 10 54.11002
 2018-Nov-30 09:15     22 38 53.760872 -02 10 53.69345
 2018-Nov-30 09:16     22 38 53.855418 -02 10 53.27686
 2018-Nov-30 09:17     22 38 53.950018 -02 10 52.86026
 2018-Nov-30 09:18     22 38 54.044670 -02 10 52.44365
 2018-Nov-30 09:19     22 38 54.139375 -02 10 52.02704
 2018-Nov-30 09:20     22 38 54.234132 -02 10 51.61041
 2018-Nov-30 09:21     22 38 54.328943 -02 10 51.19377
 2018-Nov-30 09:22     22 38 54.423806 -02 10 50.77713
 2018-Nov-30 09:23     22 38 54.518723 -02 10 50.36047
 2018-Nov-30 09:24     22 38 54.613692 -02 10 49.94381
 2018-Nov-30 09:25     22 38 54.708715 -02 10 49.52713
 2018-Nov-30 09:26     22 38 54.803791 -02 10 49.11045
 2018-Nov-30 09:27     22 38 54.898920 -02 10 48.69376
 2018-Nov-30 09:28     22 38 54.994103 -02 10 48.27706
 2018-Nov-30 09:29     22 38 55.089339 -02 10 47.86035
 2018-Nov-30 09:30     22 38 55.184628 -02 10 47.44363
 2018-Nov-30 09:31     22 38 55.279972 -02 10 47.02690
 2018-Nov-30 09:32     22 38 55.375368 -02 10 46.61017
 2018-Nov-30 09:33     22 38 55.470818 -02 10 46.19342
 2018-Nov-30 09:34     22 38 55.566322 -02 10 45.77667
 2018-Nov-30 09:35     22 38 55.661880 -02 10 45.35991
 2018-Nov-30 09:36     22 38 55.757491 -02 10 44.94315
 2018-Nov-30 09:37     22 38 55.853157 -02 10 44.52637
 2018-Nov-30 09:38     22 38 55.948876 -02 10 44.10959
 2018-Nov-30 09:39     22 38 56.044649 -02 10 43.69280
 2018-Nov-30 09:40     22 38 56.140476 -02 10 43.27600
 2018-Nov-30 09:41     22 38 56.236357 -02 10 42.85920
 2018-Nov-30 09:42     22 38 56.332292 -02 10 42.44239
 2018-Nov-30 09:43     22 38 56.428282 -02 10 42.02557
 2018-Nov-30 09:44     22 38 56.524325 -02 10 41.60875
 2018-Nov-30 09:45     22 38 56.620423 -02 10 41.19192
 2018-Nov-30 09:46     22 38 56.716575 -02 10 40.77508
 2018-Nov-30 09:47     22 38 56.812781 -02 10 40.35824
 2018-Nov-30 09:48     22 38 56.909041 -02 10 39.94139
 2018-Nov-30 09:49     22 38 57.005356 -02 10 39.52453
 2018-Nov-30 09:50     22 38 57.101726 -02 10 39.10767
 2018-Nov-30 09:51     22 38 57.198149 -02 10 38.69080
 2018-Nov-30 09:52     22 38 57.294628 -02 10 38.27393
 2018-Nov-30 09:53     22 38 57.391160 -02 10 37.85705
 2018-Nov-30 09:54     22 38 57.487748 -02 10 37.44016
 2018-Nov-30 09:55     22 38 57.584390 -02 10 37.02327
 2018-Nov-30 09:56     22 38 57.681086 -02 10 36.60638
 2018-Nov-30 09:57     22 38 57.777837 -02 10 36.18948
 2018-Nov-30 09:58     22 38 57.874643 -02 10 35.77257
 2018-Nov-30 09:59     22 38 57.971503 -02 10 35.35566
